ONEWEB-0108             
1 48076U 21025AL  24080.62335210  .00000015  00000+0  70449-5 0  9995
2 48076  87.8922 123.1797 0002203  93.8169 266.3212 13.13470175146191
ONEWEB-0169             
1 48077U 21025AM  24080.65509465  .00000178  00000+0  45250-3 0  9994
2 48077  87.8927 123.1811 0002210  91.7319 268.4063 13.13468878144851
ONEWEB-0176             
1 48210U 21031A   24081.52175739 -.00000064  00000+0 -20763-3 0  9998
2 48210  87.8891  92.4231 0001892  90.5551 269.5796 13.14503152142189
ONEWEB-0184             
1 48211U 21031B   24080.96197123 -.00000025  00000+0 -10155-3 0  9998
2 48211  87.8889  92.5217 0000860  79.1568 280.9658 13.14501406140796
ONEWEB-0179             
1 48212U 21031C   24080.93184674  .00000232  00000+0  59215-3 0  9991
2 48212  87.8891  92.5272 0001967  97.0851 263.0503 13.14502928140830
ONEWEB-0180             
1 48213U 21031D   24080.58455802 -.00000085  00000+0 -26428-3 0  9995
2 48213  87.8890  92.5971 0001894  97.9380 262.1965 13.14502782140673
ONEWEB-0218             
1 48214U 21031E   24081.52016751 -.00000130  00000+0 -38616-3 0  9990
2 48214  87.8888  92.4119 0000826 108.5019 251.6201 13.14501520140952
ONEWEB-0209             
1 48215U 21031F   24081.50906622 -.00000090  00000+0 -27661-3 0  9997
2 48215  87.8893  92.4458 0001995  97.6861 262.4495 13.14501450140953
